start=new Date('2023-02-01T00:00:00.000Z').valueOf();
sats=[{"EPOCH":"2023-01-31T21:40:36.668352","FILE":"3766747","GP_ID":"224129840","MEAN_ELEMENT_THEORY":"SGP4","REV_AT_EPOCH":"2612","TLE_LINE2":"2 53571  53.2189  99.3372 0001053  96.0213 264.0899 15.08824487 26120","TLE_LINE1":"1 53571U 22101AW  23031.90320218  .00002174  00000-0  15470-3 0  9995","PERIAPSIS":"539.064","RCS_SIZE":"LARGE","ELEMENT_SET_NO":"999","CLASSIFICATION_TYPE":"U","EPHEMERIS_TYPE":"0","PERIOD":"95.439","MEAN_MOTION_DOT":"0.00002174","OBJECT_NAME":"STARLINK-4584","BSTAR":"0.00015470000000","MEAN_MOTION_DDOT":"0.0000000000000","MEAN_MOTION":"15.08824487","ECCENTRICITY":"0.00010530","INCLINATION":"53.2189","RA_OF_ASC_NODE":"99.3372","COUNTRY_CODE":"US","ARG_OF_PERICENTER":"96.0213","LAUNCH_DATE":"2022-08-19","OBJECT_ID":"2022-101AW","CENTER_NAME":"EARTH","OBJECT_TYPE":"PAYLOAD","MEAN_ANOMALY":"264.0899","TIME_SYSTEM":"UTC","SEMIMAJOR_AXIS":"6917.928","REF_FRAME":"TEME","NORAD_CAT_ID":"53571","APOAPSIS":"540.521","SITE":"AFETR","DECAY_DATE":null},{"COUNTRY_CODE":"US","ARG_OF_PERICENTER":"82.2664","RA_OF_ASC_NODE":"100.4299","ECCENTRICITY":"0.00012640","INCLINATION":"53.2181","OBJECT_TYPE":"PAYLOAD","CENTER_NAME":"EARTH","LAUNCH_DATE":"2022-08-19","OBJECT_ID":"2022-101AX","REF_FRAME":"TEME","NORAD_CAT_ID":"53572","SEMIMAJOR_AXIS":"6917.884","TIME_SYSTEM":"UTC","MEAN_ANOMALY":"277.8471","DECAY_DATE":null,"SITE":"AFETR","APOAPSIS":"540.624","MEAN_ELEMENT_THEORY":"SGP4","GP_ID":"224129591","FILE":"3766747","EPOCH":"2023-01-31T14:53:54.684384","CLASSIFICATION_TYPE":"U","RCS_SIZE":"LARGE","ELEMENT_SET_NO":"999","TLE_LINE1":"1 53572U 22101AX  23031.62077181 -.00000247  00000-0  25390-5 0  9997","PERIAPSIS":"538.875","REV_AT_EPOCH":"2539","TLE_LINE2":"2 53572  53.2181 100.4299 0001264  82.2664 277.8471 15.08838773 25395","OBJECT_NAME":"STARLINK-4555","BSTAR":"0.00000253900000","MEAN_MOTION_DOT":"-0.00000247","EPHEMERIS_TYPE":"0","PERIOD":"95.438","MEAN_MOTION_DDOT":"0.0000000000000","MEAN_MOTION":"15.08838773"},{"OBJECT_ID":"2022-101AY","LAUNCH_DATE":"2022-08-19","CENTER_NAME":"EARTH","OBJECT_TYPE":"PAYLOAD","INCLINATION":"53.2176","ECCENTRICITY":"0.00010320","RA_OF_ASC_NODE":"99.2729","ARG_OF_PERICENTER":"95.9745","COUNTRY_CODE":"US","APOAPSIS":"540.451","SITE":"AFETR","DECAY_DATE":null,"MEAN_ANOMALY":"264.1364","TIME_SYSTEM":"UTC","SEMIMAJOR_AXIS":"6917.872","NORAD_CAT_ID":"53573","REF_FRAME":"TEME","TLE_LINE2":"2 53573  53.2176  99.2729 0001032  95.9745 264.1364 15.08842612 25439","REV_AT_EPOCH":"2543","PERIAPSIS":"539.023","TLE_LINE1":"1 53573U 22101AY  23031.89214146 -.00000107  00000-0  11346-4 0  9991","ELEMENT_SET_NO":"999","RCS_SIZE":"LARGE","CLASSIFICATION_TYPE":"U","EPOCH":"2023-01-31T21:24:41.022144","FILE":"3766747","GP_ID":"224128339","MEAN_ELEMENT_THEORY":"SGP4","MEAN_MOTION":"15.08842612","MEAN_MOTION_DDOT":"0.0000000000000","PERIOD":"95.437","EPHEMERIS_TYPE":"0","MEAN_MOTION_DOT":"-0.00000107","BSTAR":"0.00001134600000","OBJECT_NAME":"STARLINK-4547"},{"REV_AT_EPOCH":"2537","TLE_LINE2":"2 53574  53.2181 101.0004 0001154  99.8949 260.2174 15.08836352 25371","TLE_LINE1":"1 53574U 22101AZ  23031.48365012 -.00000684  00000-0 -24877-4 0  9990","PERIAPSIS":"538.958","RCS_SIZE":"LARGE","ELEMENT_SET_NO":"999","CLASSIFICATION_TYPE":"U","EPOCH":"2023-01-31T11:36:27.370368","FILE":"3766649","GP_ID":"224101430","MEAN_ELEMENT_THEORY":"SGP4","MEAN_MOTION_DDOT":"0.0000000000000","MEAN_MOTION":"15.08836352","EPHEMERIS_TYPE":"0","PERIOD":"95.438","MEAN_MOTION_DOT":"-0.00000684","OBJECT_NAME":"STARLINK-4559","BSTAR":"-0.00002487700000","LAUNCH_DATE":"2022-08-19","OBJECT_ID":"2022-101AZ","CENTER_NAME":"EARTH","OBJECT_TYPE":"PAYLOAD","ECCENTRICITY":"0.00011540","INCLINATION":"53.2181","RA_OF_ASC_NODE":"101.0004","COUNTRY_CODE":"US","ARG_OF_PERICENTER":"99.8949","APOAPSIS":"540.555","SITE":"AFETR","DECAY_DATE":null,"MEAN_ANOMALY":"260.2174","TIME_SYSTEM":"UTC","SEMIMAJOR_AXIS":"6917.892","REF_FRAME":"TEME","NORAD_CAT_ID":"53574"},{"CLASSIFICATION_TYPE":"U","ELEMENT_SET_NO":"999","RCS_SIZE":"LARGE","PERIAPSIS":"539.046","TLE_LINE1":"1 53575U 22101BA  23031.88845909  .00000530  00000-0  51398-4 0  9999","TLE_LINE2":"2 53575  53.2188  99.2512 0001023  96.6542 263.4566 15.08837137 26126","REV_AT_EPOCH":"2612","MEAN_ELEMENT_THEORY":"SGP4","GP_ID":"224129341","FILE":"3766747","EPOCH":"2023-01-31T21:19:22.865376","MEAN_MOTION":"15.08837137","MEAN_MOTION_DDOT":"0.0000000000000","BSTAR":"0.00005139800000","OBJECT_NAME":"STARLINK-4551","MEAN_MOTION_DOT":"0.00000530","PERIOD":"95.438","EPHEMERIS_TYPE":"0","OBJECT_TYPE":"PAYLOAD","CENTER_NAME":"EARTH","OBJECT_ID":"2022-101BA","LAUNCH_DATE":"2022-08-19","ARG_OF_PERICENTER":"96.6542","COUNTRY_CODE":"US","RA_OF_ASC_NODE":"99.2512","INCLINATION":"53.2188","ECCENTRICITY":"0.00010230","DECAY_DATE":null,"SITE":"AFETR","APOAPSIS":"540.462","NORAD_CAT_ID":"53575","REF_FRAME":"TEME","SEMIMAJOR_AXIS":"6917.889","TIME_SYSTEM":"UTC","MEAN_ANOMALY":"263.4566"},{"BSTAR":"0.00006497900000","OBJECT_NAME":"STARLINK-4581","PERIOD":"95.438","EPHEMERIS_TYPE":"0","MEAN_MOTION_DOT":"0.00000746","MEAN_MOTION":"15.08839541","MEAN_MOTION_DDOT":"0.0000000000000","GP_ID":"224130091","MEAN_ELEMENT_THEORY":"SGP4","EPOCH":"2023-01-31T21:03:27.586368","FILE":"3766747","ELEMENT_SET_NO":"999","RCS_SIZE":"LARGE","CLASSIFICATION_TYPE":"U","TLE_LINE2":"2 53576  53.2160  99.1936 0001564  88.4007 271.7164 15.08839541 26252","REV_AT_EPOCH":"2625","PERIAPSIS":"538.665","TLE_LINE1":"1 53576U 22101BB  23031.87740262  .00000746  00000-0  64979-4 0  9993","SEMIMAJOR_AXIS":"6917.882","REF_FRAME":"TEME","NORAD_CAT_ID":"53576","MEAN_ANOMALY":"271.7164","TIME_SYSTEM":"UTC","SITE":"AFETR","DECAY_DATE":null,"APOAPSIS":"540.829","RA_OF_ASC_NODE":"99.1936","ARG_OF_PERICENTER":"88.4007","COUNTRY_CODE":"US","INCLINATION":"53.2160","ECCENTRICITY":"0.00015640","OBJECT_TYPE":"PAYLOAD","OBJECT_ID":"2022-101BB","LAUNCH_DATE":"2022-08-19","CENTER_NAME":"EARTH"},{"OBJECT_NAME":"STARLINK-4553","BSTAR":"0.00000137530000","MEAN_MOTION_DOT":"-0.00000266","EPHEMERIS_TYPE":"0","PERIOD":"95.437","MEAN_MOTION_DDOT":"0.0000000000000","MEAN_MOTION":"15.08842969","MEAN_ELEMENT_THEORY":"SGP4","GP_ID":"224128839","FILE":"3766747","EPOCH":"2023-01-31T21:14:04.078752","CLASSIFICATION_TYPE":"U","RCS_SIZE":"LARGE","ELEMENT_SET_NO":"999","TLE_LINE1":"1 53577U 22101BC  23031.88476943 -.00000266  00000-0  13753-5 0  9990","PERIAPSIS":"538.791","REV_AT_EPOCH":"2625","TLE_LINE2":"2 53577  53.2188  99.2315 0001367  75.8820 284.2324 15.08842969 26254","NORAD_CAT_ID":"53577","REF_FRAME":"TEME","SEMIMAJOR_AXIS":"6917.871","TIME_SYSTEM":"UTC","MEAN_ANOMALY":"284.2324","DECAY_DATE":null,"SITE":"AFETR","APOAPSIS":"540.682","COUNTRY_CODE":"US","ARG_OF_PERICENTER":"75.8820","RA_OF_ASC_NODE":"99.2315","ECCENTRICITY":"0.00013670","INCLINATION":"53.2188","OBJECT_TYPE":"PAYLOAD","CENTER_NAME":"EARTH","LAUNCH_DATE":"2022-08-19","OBJECT_ID":"2022-101BC"},{"PERIAPSIS":"538.886","TLE_LINE1":"1 53578U 22101BD  23031.87371559 -.00000311  00000-0 -14690-5 0  9990","TLE_LINE2":"2 53578  53.2181  99.1666 0001225  88.8993 271.2140 15.08843892 25431","REV_AT_EPOCH":"2543","CLASSIFICATION_TYPE":"U","ELEMENT_SET_NO":"999","RCS_SIZE":"LARGE","FILE":"3766747","EPOCH":"2023-01-31T20:58:09.026976","MEAN_ELEMENT_THEORY":"SGP4","GP_ID":"224128590","MEAN_MOTION":"15.08843892","MEAN_MOTION_DDOT":"0.0000000000000","MEAN_MOTION_DOT":"-0.00000311","PERIOD":"95.437","EPHEMERIS_TYPE":"0","BSTAR":"-0.00000146900000","OBJECT_NAME":"STARLINK-4556","CENTER_NAME":"EARTH","OBJECT_ID":"2022-101BD","LAUNCH_DATE":"2022-08-19","OBJECT_TYPE":"PAYLOAD","INCLINATION":"53.2181","ECCENTRICITY":"0.00012250","ARG_OF_PERICENTER":"88.8993","COUNTRY_CODE":"US","RA_OF_ASC_NODE":"99.1666","APOAPSIS":"540.581","DECAY_DATE":null,"SITE":"AFETR","TIME_SYSTEM":"UTC","MEAN_ANOMALY":"271.2140","REF_FRAME":"TEME","NORAD_CAT_ID":"53578","SEMIMAJOR_AXIS":"6917.868"},{"SITE":"AFETR","DECAY_DATE":null,"APOAPSIS":"540.618","SEMIMAJOR_AXIS":"6917.871","NORAD_CAT_ID":"53579","REF_FRAME":"TEME","MEAN_ANOMALY":"258.5331","TIME_SYSTEM":"UTC","OBJECT_TYPE":"PAYLOAD","OBJECT_ID":"2022-101BE","LAUNCH_DATE":"2022-08-19","CENTER_NAME":"EARTH","RA_OF_ASC_NODE":"100.3317","ARG_OF_PERICENTER":"101.5804","COUNTRY_CODE":"US","INCLINATION":"53.2165","ECCENTRICITY":"0.00012750","MEAN_MOTION":"15.08842968","MEAN_MOTION_DDOT":"0.0000000000000","BSTAR":"0.00007067300000","OBJECT_NAME":"STARLINK-4580","PERIOD":"95.437","EPHEMERIS_TYPE":"0","MEAN_MOTION_DOT":"0.00000837","ELEMENT_SET_NO":"999","RCS_SIZE":"LARGE","CLASSIFICATION_TYPE":"U","TLE_LINE2":"2 53579  53.2165 100.3317 0001275 101.5804 258.5331 15.08842968 25399","REV_AT_EPOCH":"2539","PERIAPSIS":"538.854","TLE_LINE1":"1 53579U 22101BE  23031.60506896  .00000837  00000-0  70673-4 0  9999","GP_ID":"224129841","MEAN_ELEMENT_THEORY":"SGP4","EPOCH":"2023-01-31T14:31:17.958144","FILE":"3766747"},{"MEAN_MOTION":"15.08850444","MEAN_MOTION_DDOT":"0.0000000000000","BSTAR":"0.00037169000000","OBJECT_NAME":"STARLINK-4691","MEAN_MOTION_DOT":"0.00005634","PERIOD":"95.437","EPHEMERIS_TYPE":"0","CLASSIFICATION_TYPE":"U","ELEMENT_SET_NO":"999","RCS_SIZE":"LARGE","PERIAPSIS":"538.654","TLE_LINE1":"1 53588U 22104A   23031.13871272  .00005634  00000-0  37169-3 0  9995","TLE_LINE2":"2 53588  53.2172 293.0687 0001531  76.7370 283.3793 15.08850444 23791","REV_AT_EPOCH":"2379","MEAN_ELEMENT_THEORY":"SGP4","GP_ID":"224102568","FILE":"3766684","EPOCH":"2023-01-31T03:19:44.779008","DECAY_DATE":null,"SITE":"AFETR","APOAPSIS":"540.773","REF_FRAME":"TEME","NORAD_CAT_ID":"53588","SEMIMAJOR_AXIS":"6917.848","TIME_SYSTEM":"UTC","MEAN_ANOMALY":"283.3793","OBJECT_TYPE":"PAYLOAD","CENTER_NAME":"EARTH","OBJECT_ID":"2022-104A","LAUNCH_DATE":"2022-08-28","ARG_OF_PERICENTER":"76.7370","COUNTRY_CODE":"US","RA_OF_ASC_NODE":"293.0687","INCLINATION":"53.2172","ECCENTRICITY":"0.00015310"}];
